SL-16 R/B               
1 25400U 98043G   26049.43664424  .00000065  00000+0  46240-4 0  9999
2 25400  98.8222   2.6676 0010931  71.9951 288.2419 14.26045030436245
SL-16 R/B               
1 25407U 98045B   26049.57288300  .00000214  00000+0  13236-3 0  9992
2 25407  71.0092 221.7744 0005777  41.8299 318.3265 14.16190103424391
ISS (ZARYA)             
1 25544U 98067A   26049.53796808  .00009650  00000+0  18483-3 0  9993
2 25544  51.6325 167.0200 0010945 111.2724 248.9434 15.48685385553366
CZ-4B R/B               
1 25732U 99025C   26049.62739314  .00000048  00000+0  43734-4 0  9996
2 25732  98.6667  94.3569 0037769  41.1597  71.2369 14.18261430385462
OKEAN-O                 
1 25860U 99039A   26049.59042171  .00000665  00000+0  94099-4 0  9992
2 25860  97.9486 109.6721 0001743  79.6521 280.4887 14.80303048431564
SL-16 R/B               
1 25861U 99039B   26049.58831963  .00000552  00000+0  76890-4 0  9991
2 25861  98.0010 108.7094 0013896 323.8055  36.2216 14.81703485434039
DELTA 2 R/B             
1 25876U 99041E   26049.32753174  .00001756  00000+0  32001-3 0  9991
2 25876  51.7660  18.6034 0502219 291.2482  63.5526 14.11764612360294
HELIOS 1B               
1 25977U 99064A   26049.61176580  .00001758  00000+0  19978-3 0  9990
2 25977  98.1717 311.2927 0002332 100.3976 259.7502 14.87614936682427
TERRA                   
1 25994U 99068A   26049.61806275  .00000420  00000+0  94782-4 0  9996
2 25994  97.9635 103.7774 0001341 209.0573 268.3481 14.60993096392298
SL-16 R/B               
1 26070U 00006B   26049.58330926 -.00000075  00000+0 -13865-4 0  9998
2 26070  71.0022 138.0120 0017944 216.9150 143.0739 14.15818331345850
TITAN 4B R/B            
1 26474U 00047B   26049.54673304  .00002908  00000+0  18707-3 0  9991
2 26474  67.9879  94.3339 0037340  58.6481 301.8314 15.09386610390024
ENVISAT                 
1 27386U 02009A   26049.50051317  .00000112  00000+0  50235-4 0  9992
2 27386  98.3697   3.5588 0001363  87.3398  23.6343 14.39029360256416
