CCSDS_OMM_VERS = 2.0
CREATION_DATE  = 
ORIGINATOR     = 

OBJECT_NAME    = SL-16 R/B
OBJECT_ID      = 1998-043G
CENTER_NAME    = EARTH
REF_FRAME      = TEME
TIME_SYSTEM    = UTC
MEAN_ELEMENT_THEORY = SGP/SGP4

EPOCH          = 2026-02-18T10:28:46.062336
MEAN_MOTION    = 14.26045030
ECCENTRICITY   = .00109312
INCLINATION    = 98.8222
RA_OF_ASC_NODE = 2.6676
ARG_OF_PERICENTER = 71.9951
MEAN_ANOMALY   = 288.2419

EPHEMERIS_TYPE = 0
CLASSIFICATION_TYPE = U
NORAD_CAT_ID   = 25400
ELEMENT_SET_NO = 999
REV_AT_EPOCH   = 43624
BSTAR          = .4623967E-4
MEAN_MOTION_DOT = .65E-6
MEAN_MOTION_DDOT = 0

CCSDS_OMM_VERS = 2.0
CREATION_DATE  = 
ORIGINATOR     = 

OBJECT_NAME    = SL-16 R/B
OBJECT_ID      = 1998-045B
CENTER_NAME    = EARTH
REF_FRAME      = TEME
TIME_SYSTEM    = UTC
MEAN_ELEMENT_THEORY = SGP/SGP4

EPOCH          = 2026-02-18T13:44:57.091200
MEAN_MOTION    = 14.16190103
ECCENTRICITY   = .00057772
INCLINATION    = 71.0092
RA_OF_ASC_NODE = 221.7744
ARG_OF_PERICENTER = 41.8299
MEAN_ANOMALY   = 318.3265

EPHEMERIS_TYPE = 0
CLASSIFICATION_TYPE = U
NORAD_CAT_ID   = 25407
ELEMENT_SET_NO = 999
REV_AT_EPOCH   = 42439
BSTAR          = .13235579E-3
MEAN_MOTION_DOT = .214E-5
MEAN_MOTION_DDOT = 0

CCSDS_OMM_VERS = 2.0
CREATION_DATE  = 
ORIGINATOR     = 

OBJECT_NAME    = ISS (ZARYA)
OBJECT_ID      = 1998-067A
CENTER_NAME    = EARTH
REF_FRAME      = TEME
TIME_SYSTEM    = UTC
MEAN_ELEMENT_THEORY = SGP/SGP4

EPOCH          = 2026-02-18T12:54:40.442112
MEAN_MOTION    = 15.48685385
ECCENTRICITY   = .00109451
INCLINATION    = 51.6325
RA_OF_ASC_NODE = 167.0200
ARG_OF_PERICENTER = 111.2724
MEAN_ANOMALY   = 248.9434

EPHEMERIS_TYPE = 0
CLASSIFICATION_TYPE = U
NORAD_CAT_ID   = 25544
ELEMENT_SET_NO = 999
REV_AT_EPOCH   = 55336
BSTAR          = .18483332E-3
MEAN_MOTION_DOT = .965E-4
MEAN_MOTION_DDOT = 0

CCSDS_OMM_VERS = 2.0
CREATION_DATE  = 
ORIGINATOR     = 

OBJECT_NAME    = CZ-4B R/B
OBJECT_ID      = 1999-025C
CENTER_NAME    = EARTH
REF_FRAME      = TEME
TIME_SYSTEM    = UTC
MEAN_ELEMENT_THEORY = SGP/SGP4

EPOCH          = 2026-02-18T15:03:26.767296
MEAN_MOTION    = 14.18261430
ECCENTRICITY   = .00377693
INCLINATION    = 98.6667
RA_OF_ASC_NODE = 94.3569
ARG_OF_PERICENTER = 41.1597
MEAN_ANOMALY   = 71.2369

EPHEMERIS_TYPE = 0
CLASSIFICATION_TYPE = U
NORAD_CAT_ID   = 25732
ELEMENT_SET_NO = 999
REV_AT_EPOCH   = 38546
BSTAR          = .43734458E-4
MEAN_MOTION_DOT = .48E-6
MEAN_MOTION_DDOT = 0

CCSDS_OMM_VERS = 2.0
CREATION_DATE  = 
ORIGINATOR     = 

OBJECT_NAME    = OKEAN-O
OBJECT_ID      = 1999-039A
CENTER_NAME    = EARTH
REF_FRAME      = TEME
TIME_SYSTEM    = UTC
MEAN_ELEMENT_THEORY = SGP/SGP4

EPOCH          = 2026-02-18T14:10:12.435744
MEAN_MOTION    = 14.80303048
ECCENTRICITY   = .00017431
INCLINATION    = 97.9486
RA_OF_ASC_NODE = 109.6721
ARG_OF_PERICENTER = 79.6521
MEAN_ANOMALY   = 280.4887

EPHEMERIS_TYPE = 0
CLASSIFICATION_TYPE = U
NORAD_CAT_ID   = 25860
ELEMENT_SET_NO = 999
REV_AT_EPOCH   = 43156
BSTAR          = .94099464E-4
MEAN_MOTION_DOT = .665E-5
MEAN_MOTION_DDOT = 0

CCSDS_OMM_VERS = 2.0
CREATION_DATE  = 
ORIGINATOR     = 

OBJECT_NAME    = SL-16 R/B
OBJECT_ID      = 1999-039B
CENTER_NAME    = EARTH
REF_FRAME      = TEME
TIME_SYSTEM    = UTC
MEAN_ELEMENT_THEORY = SGP/SGP4

EPOCH          = 2026-02-18T14:07:10.816032
MEAN_MOTION    = 14.81703485
ECCENTRICITY   = .0013896
INCLINATION    = 98.0010
RA_OF_ASC_NODE = 108.7094
ARG_OF_PERICENTER = 323.8055
MEAN_ANOMALY   = 36.2216

EPHEMERIS_TYPE = 0
CLASSIFICATION_TYPE = U
NORAD_CAT_ID   = 25861
ELEMENT_SET_NO = 999
REV_AT_EPOCH   = 43403
BSTAR          = .76889578E-4
MEAN_MOTION_DOT = .552E-5
MEAN_MOTION_DDOT = 0

CCSDS_OMM_VERS = 2.0
CREATION_DATE  = 
ORIGINATOR     = 

OBJECT_NAME    = DELTA 2 R/B
OBJECT_ID      = 1999-041E
CENTER_NAME    = EARTH
REF_FRAME      = TEME
TIME_SYSTEM    = UTC
MEAN_ELEMENT_THEORY = SGP/SGP4

EPOCH          = 2026-02-18T07:51:38.742336
MEAN_MOTION    = 14.11764612
ECCENTRICITY   = .05022192
INCLINATION    = 51.7660
RA_OF_ASC_NODE = 18.6034
ARG_OF_PERICENTER = 291.2482
MEAN_ANOMALY   = 63.5526

EPHEMERIS_TYPE = 0
CLASSIFICATION_TYPE = U
NORAD_CAT_ID   = 25876
ELEMENT_SET_NO = 999
REV_AT_EPOCH   = 36029
BSTAR          = .32000985E-3
MEAN_MOTION_DOT = .1756E-4
MEAN_MOTION_DDOT = 0

CCSDS_OMM_VERS = 2.0
CREATION_DATE  = 
ORIGINATOR     = 

OBJECT_NAME    = HELIOS 1B
OBJECT_ID      = 1999-064A
CENTER_NAME    = EARTH
REF_FRAME      = TEME
TIME_SYSTEM    = UTC
MEAN_ELEMENT_THEORY = SGP/SGP4

EPOCH          = 2026-02-18T14:40:56.565120
MEAN_MOTION    = 14.87614936
ECCENTRICITY   = .00023328
INCLINATION    = 98.1717
RA_OF_ASC_NODE = 311.2927
ARG_OF_PERICENTER = 100.3976
MEAN_ANOMALY   = 259.7502

EPHEMERIS_TYPE = 0
CLASSIFICATION_TYPE = U
NORAD_CAT_ID   = 25977
ELEMENT_SET_NO = 999
REV_AT_EPOCH   = 68242
BSTAR          = .19978086E-3
MEAN_MOTION_DOT = .1758E-4
MEAN_MOTION_DDOT = 0

CCSDS_OMM_VERS = 2.0
CREATION_DATE  = 
ORIGINATOR     = 

OBJECT_NAME    = TERRA
OBJECT_ID      = 1999-068A
CENTER_NAME    = EARTH
REF_FRAME      = TEME
TIME_SYSTEM    = UTC
MEAN_ELEMENT_THEORY = SGP/SGP4

EPOCH          = 2026-02-18T14:50:00.621600
MEAN_MOTION    = 14.60993096
ECCENTRICITY   = .00013411
INCLINATION    = 97.9635
RA_OF_ASC_NODE = 103.7774
ARG_OF_PERICENTER = 209.0573
MEAN_ANOMALY   = 268.3481

EPHEMERIS_TYPE = 0
CLASSIFICATION_TYPE = U
NORAD_CAT_ID   = 25994
ELEMENT_SET_NO = 999
REV_AT_EPOCH   = 39229
BSTAR          = .94782306E-4
MEAN_MOTION_DOT = .42E-5
MEAN_MOTION_DDOT = 0

CCSDS_OMM_VERS = 2.0
CREATION_DATE  = 
ORIGINATOR     = 

OBJECT_NAME    = SL-16 R/B
OBJECT_ID      = 2000-006B
CENTER_NAME    = EARTH
REF_FRAME      = TEME
TIME_SYSTEM    = UTC
MEAN_ELEMENT_THEORY = SGP/SGP4

EPOCH          = 2026-02-18T13:59:57.920064
MEAN_MOTION    = 14.15818331
ECCENTRICITY   = .0017944
INCLINATION    = 71.0022
RA_OF_ASC_NODE = 138.0120
ARG_OF_PERICENTER = 216.9150
MEAN_ANOMALY   = 143.0739

EPHEMERIS_TYPE = 0
CLASSIFICATION_TYPE = U
NORAD_CAT_ID   = 26070
ELEMENT_SET_NO = 999
REV_AT_EPOCH   = 34585
BSTAR          = -.13865368E-4
MEAN_MOTION_DOT = -.75E-6
MEAN_MOTION_DDOT = 0

CCSDS_OMM_VERS = 2.0
CREATION_DATE  = 
ORIGINATOR     = 

OBJECT_NAME    = TITAN 4B R/B
OBJECT_ID      = 2000-047B
CENTER_NAME    = EARTH
REF_FRAME      = TEME
TIME_SYSTEM    = UTC
MEAN_ELEMENT_THEORY = SGP/SGP4

EPOCH          = 2026-02-18T13:07:17.734656
MEAN_MOTION    = 15.09386610
ECCENTRICITY   = .00373401
INCLINATION    = 67.9879
RA_OF_ASC_NODE = 94.3339
ARG_OF_PERICENTER = 58.6481
MEAN_ANOMALY   = 301.8314

EPHEMERIS_TYPE = 0
CLASSIFICATION_TYPE = U
NORAD_CAT_ID   = 26474
ELEMENT_SET_NO = 999
REV_AT_EPOCH   = 39002
BSTAR          = .18707452E-3
MEAN_MOTION_DOT = .2908E-4
MEAN_MOTION_DDOT = 0

CCSDS_OMM_VERS = 2.0
CREATION_DATE  = 
ORIGINATOR     = 

OBJECT_NAME    = ENVISAT
OBJECT_ID      = 2002-009A
CENTER_NAME    = EARTH
REF_FRAME      = TEME
TIME_SYSTEM    = UTC
MEAN_ELEMENT_THEORY = SGP/SGP4

EPOCH          = 2026-02-18T12:00:44.337888
MEAN_MOTION    = 14.39029360
ECCENTRICITY   = .00013636
INCLINATION    = 98.3697
RA_OF_ASC_NODE = 3.5588
ARG_OF_PERICENTER = 87.3398
MEAN_ANOMALY   = 23.6343

EPHEMERIS_TYPE = 0
CLASSIFICATION_TYPE = U
NORAD_CAT_ID   = 27386
ELEMENT_SET_NO = 999
REV_AT_EPOCH   = 25641
BSTAR          = .50235183E-4
MEAN_MOTION_DOT = .112E-5
MEAN_MOTION_DDOT = 0

